COSMOS 2425 (716)       
1 29670U 06062A   21341.16565649  .00000016  00000+0  00000+0 0  9996
2 29670  64.8015 249.6176 0024548 345.5059 192.4718  2.13110447116350
COSMOS 2433 (720)       
1 32275U 07052A   21341.39777047 -.00000061  00000+0  00000+0 0  9994
2 32275  66.0785  11.0446 0004915 241.4447 280.5572  2.13104306109878
COSMOS 2432 (719)       
1 32276U 07052B   21341.64094991 -.00000062  00000+0  00000+0 0  9994
2 32276  66.0917  11.1354 0010046 314.4732 342.8878  2.13103477109874
COSMOS 2434 (721)       
1 32393U 07065A   21341.13034514  .00000017  00000+0  00000+0 0  9996
2 32393  64.4211 247.9972 0002170  69.2861 136.4390  2.13103141108575
COSMOS 2436 (723)       
1 32395U 07065C   21341.04365588  .00000018  00000+0  00000+0 0  9997
2 32395  64.4299 248.0555 0015866 358.4322 276.7841  2.13102917108505
COSMOS 2456 (730)       
1 36111U 09070A   21341.44031771  .00000050  00000+0  00000+0 0  9999
2 36111  64.3091 127.6471 0001591 345.7302 266.0624  2.13099204 93249
COSMOS 2457 (733)       
1 36112U 09070B   21341.47253765  .00000050  00000+0  00000+0 0  9992
2 36112  64.2923 127.5265 0006846 149.4733 252.8041  2.13101433 93253
COSMOS 2459 (731)       
1 36400U 10007A   21341.30415914 -.00000060  00000+0  00000+0 0  9994
2 36400  65.9722   9.9511 0025601 345.3086 325.6016  2.13111940 91582
COSMOS 2461 (735)       
1 36401U 10007B   21341.37410459 -.00000061  00000+0  00000+0 0  9992
2 36401  65.9670   9.9119 0018612   0.9784   0.5000  2.13103707 91609
COSMOS 2460 (732)       
1 36402U 10007C   21341.37021373 -.00000061  00000+0  00000+0 0  9996
2 36402  65.9539   9.8660 0002238 242.2065  62.8575  2.13106501 91595
COSMOS 2464 (736)       
1 37139U 10041C   21341.14617118  .00000017  00000+0  00000+0 0  9995
2 37139  64.0201 247.1682 0029060   9.2482  68.2615  2.13100819 87659
COSMOS 2471 (701K)      
1 37372U 11009A   21340.52349128 -.00000056  00000+0  00000+0 0  9997
2 37372  65.9482   9.8221 0017567 231.0441 266.1689  2.13063254 83859
COSMOS 2476 (744)       
1 37867U 11064A   21341.23660251  .00000051  00000+0  00000+0 0  9993
2 37867  64.6013 128.9353 0019747 230.4029 128.9231  2.13101861 78589
COSMOS 2477 (745)       
1 37868U 11064B   21341.30559458  .00000051  00000+0  00000+0 0  9998
2 37868  64.6091 128.9954 0017083 230.4780   0.0181  2.13101694 78542
COSMOS 2475 (743)       
1 37869U 11064C   21341.37051439  .00000052  00000+0  00000+0 0  9993
2 37869  64.6163 128.9996 0020479 252.2776 345.8941  2.13101902 78556
COSMOS 2485 (747)       
1 39155U 13019A   21341.50666929  .00000053  00000+0  00000+0 0  9997
2 39155  64.7662 129.3125 0020397 226.1760  24.7953  2.13101882 67069
COSMOS 2492 (754)       
1 39620U 14012A   21341.03872478 -.00000059  00000+0  00000+0 0  9991
2 39620  65.8418   9.5841 0013297 313.4366 333.1655  2.13103277 60007
COSMOS 2500 (755)       
1 40001U 14032A   21341.31785546 -.00000061  00000+0  00000+0 0  9991
2 40001  65.7826   9.4499 0008143 211.3099 148.6035  2.13102438 58225
COSMOS 2501 (702K)      
1 40315U 14075A   21341.20704830  .00000016  00000+0  00000+0 0  9990
2 40315  63.7299 247.9077 0017327 211.5120 230.4894  2.13101328 54638
COSMOS 2514 (751)       
1 41330U 16008A   21341.50206466 -.00000062  00000+0  00000+0 0  9993
2 41330  65.5839   9.1836 0012117 217.7925 106.9092  2.13102828 45396
COSMOS 2516 (753)       
1 41554U 16032A   21341.57724692  .00000011  00000+0  00000+0 0  9994
2 41554  63.9551 248.1168 0013332 219.9206  61.4761  2.13106265 43009
COSMOS 2522 (752)       
1 42939U 17055A   21341.07443913  .00000017  00000+0  00000+0 0  9993
2 42939  64.1893 248.4728 0007738 251.0401 224.4525  2.13102146 32754
COSMOS 2527 (756)       
1 43508U 18053A   21341.16850878  .00000051  00000+0  00000+0 0  9995
2 43508  64.9298 129.2839 0007064 212.3175   7.4587  2.13102562 27048
COSMOS 2529 (757)       
1 43687U 18086A   21341.20247836  .00000016  00000+0  00000+0 0  9999
2 43687  64.4040 248.7327 0009998 272.9041 256.3488  2.13102167 24062
COSMOS 2534 (758)       
1 44299U 19030A   21341.17502095  .00000016  00000+0  00000+0 0  9996
2 44299  64.4750 248.6013 0013044 291.7135 351.1810  2.13101937 19703
COSMOS 2544 (759)       
1 44850U 19088A   21341.74330532  .00000055  00000+0  00000+0 0  9993
2 44850  64.9149 129.1213 0010044 252.8941  91.4548  2.13102335 15484
COSMOS 2545 (760)       
1 45358U 20018A   21341.43340309 -.00000063  00000+0  00000+0 0  9991
2 45358  64.9182   9.9509 0011333 246.6011  69.7696  2.13102711 13432
